{
  "type": "FeatureCollection",
  "features": [
    {
      "type": "Feature",
      "properties": {
        "norad_id": 41860,
        "name": "GSAT0212 (GALILEO 16)",
        "group": "galileo",
        "lat": 18.495626368509715,
        "lon": -87.10292220365663,
        "alt_km": 23223.868231055538,
        "timestamp": "2025-12-12T07:43:20.776403+00:00",
        "meta_object_name": "GSAT0212 (GALILEO 16)",
        "meta_object_id": "2016-069B",
        "meta_epoch": "2025-12-09T03:10:58.927872",
        "meta_mean_motion": 1.70474546,
        "meta_eccentricity": 0.00021877,
        "meta_inclination": 55.3778,
        "meta_ra_of_asc_node": 106.3455,
        "meta_arg_of_pericenter": 30.0277,
        "meta_mean_anomaly": 329.9496,
        "meta_ephemeris_type": 0,
        "meta_classification_type": "U",
        "meta_norad_cat_id": 41860,
        "meta_element_set_no": 999,
        "meta_rev_at_epoch": 5641,
        "meta_bstar": 0,
        "meta_mean_motion_dot": 1e-07,
        "meta_mean_motion_ddot": 0,
        "tle_line1": "1 41860U 16069B   25343.13262648  .00000010  00000+0  00000+0 0  9999",
        "tle_line2": "2 41860  55.3778 106.3455 0002187  30.0277 329.9496  1.70474546 56413"
      },
      "geometry": {
        "type": "Point",
        "coordinates": [
          -87.10292220365663,
          18.495626368509715
        ]
      }
    },
    {
      "type": "Feature",
      "properties": {
        "norad_id": 41861,
        "name": "GSAT0213 (GALILEO 17)",
        "group": "galileo",
        "lat": -49.89829374952008,
        "lon": 51.21617674843961,
        "alt_km": 23220.739240448027,
        "timestamp": "2025-12-12T07:43:20.776414+00:00",
        "meta_object_name": "GSAT0213 (GALILEO 17)",
        "meta_object_id": "2016-069C",
        "meta_epoch": "2025-12-11T06:14:19.190112",
        "meta_mean_motion": 1.70474845,
        "meta_eccentricity": 0.00023572,
        "meta_inclination": 55.3813,
        "meta_ra_of_asc_node": 106.2942,
        "meta_arg_of_pericenter": 283.5833,
        "meta_mean_anomaly": 76.361,
        "meta_ephemeris_type": 0,
        "meta_classification_type": "U",
        "meta_norad_cat_id": 41861,
        "meta_element_set_no": 999,
        "meta_rev_at_epoch": 5631,
        "meta_bstar": 0,
        "meta_mean_motion_dot": 9e-08,
        "meta_mean_motion_ddot": 0,
        "tle_line1": "1 41861U 16069C   25345.25994433  .00000009  00000+0  00000+0 0  9997",
        "tle_line2": "2 41861  55.3813 106.2942 0002357 283.5833  76.3610  1.70474845 56318"
      },
      "geometry": {
        "type": "Point",
        "coordinates": [
          51.21617674843961,
          -49.89829374952008
        ]
      }
    },
    {
      "type": "Feature",
      "properties": {
        "norad_id": 41862,
        "name": "GSAT0214 (GALILEO 18)",
        "group": "galileo",
        "lat": -18.021735847068552,
        "lon": -60.77729011661188,
        "alt_km": 23224.548091368364,
        "timestamp": "2025-12-12T07:43:20.776425+00:00",
        "meta_object_name": "GSAT0214 (GALILEO 18)",
        "meta_object_id": "2016-069D",
        "meta_epoch": "2025-12-10T19:39:52.929504",
        "meta_mean_motion": 1.70474684,
        "meta_eccentricity": 0.00013288,
        "meta_inclination": 55.3792,
        "meta_ra_of_asc_node": 106.2992,
        "meta_arg_of_pericenter": 290.9764,
        "meta_mean_anomaly": 68.9794,
        "meta_ephemeris_type": 0,
        "meta_classification_type": "U",
        "meta_norad_cat_id": 41862,
        "meta_element_set_no": 999,
        "meta_rev_at_epoch": 5643,
        "meta_bstar": 0,
        "meta_mean_motion_dot": 1e-07,
        "meta_mean_motion_ddot": 0,
        "tle_line1": "1 41862U 16069D   25344.81936261  .00000010  00000+0  00000+0 0  9996",
        "tle_line2": "2 41862  55.3792 106.2992 0001328 290.9764  68.9794  1.70474684 56436"
      },
      "geometry": {
        "type": "Point",
        "coordinates": [
          -60.77729011661188,
          -18.021735847068552
        ]
      }
    },
    {
      "type": "Feature",
      "properties": {
        "norad_id": 43055,
        "name": "GSAT0215 (GALILEO 19)",
        "group": "galileo",
        "lat": -54.190742019695925,
        "lon": 121.57885061587838,
        "alt_km": 23227.861728766165,
        "timestamp": "2025-12-12T07:43:20.776437+00:00",
        "meta_object_name": "GSAT0215 (GALILEO 19)",
        "meta_object_id": "2017-079A",
        "meta_epoch": "2025-12-11T07:25:43.247712",
        "meta_mean_motion": 1.7047387,
        "meta_eccentricity": 0.00012643,
        "meta_inclination": 55.1305,
        "meta_ra_of_asc_node": 226.6772,
        "meta_arg_of_pericenter": 348.3771,
        "meta_mean_anomaly": 11.6989,
        "meta_ephemeris_type": 0,
        "meta_classification_type": "U",
        "meta_norad_cat_id": 43055,
        "meta_element_set_no": 999,
        "meta_rev_at_epoch": 4978,
        "meta_bstar": 0,
        "meta_mean_motion_dot": 1e-07,
        "meta_mean_motion_ddot": 0,
        "tle_line1": "1 43055U 17079A   25345.30952833  .00000010  00000+0  00000+0 0  9992",
        "tle_line2": "2 43055  55.1305 226.6772 0001264 348.3771  11.6989  1.70473870 49785"
      },
      "geometry": {
        "type": "Point",
        "coordinates": [
          121.57885061587838,
          -54.190742019695925
        ]
      }
    },
    {
      "type": "Feature",
      "properties": {
        "norad_id": 43056,
        "name": "GSAT0216 (GALILEO 20)",
        "group": "galileo",
        "lat": 54.439949952459266,
        "lon": -56.31867229419685,
        "alt_km": 23219.803751517968,
        "timestamp": "2025-12-12T07:43:20.776448+00:00",
        "meta_object_name": "GSAT0216 (GALILEO 20)",
        "meta_object_id": "2017-079B",
        "meta_epoch": "2025-12-10T10:15:48.535776",
        "meta_mean_motion": 1.70473969,
        "meta_eccentricity": 0.000248,
        "meta_inclination": 55.1311,
        "meta_ra_of_asc_node": 226.7014,
        "meta_arg_of_pericenter": 319.9818,
        "meta_mean_anomaly": 40.0811,
        "meta_ephemeris_type": 0,
        "meta_classification_type": "U",
        "meta_norad_cat_id": 43056,
        "meta_element_set_no": 999,
        "meta_rev_at_epoch": 4978,
        "meta_bstar": 0,
        "meta_mean_motion_dot": 9e-08,
        "meta_mean_motion_ddot": 0,
        "tle_line1": "1 43056U 17079B   25344.42764509  .00000009  00000+0  00000+0 0  9994",
        "tle_line2": "2 43056  55.1311 226.7014 0002480 319.9818  40.0811  1.70473969 49789"
      },
      "geometry": {
        "type": "Point",
        "coordinates": [
          -56.31867229419685,
          54.439949952459266
        ]
      }
    },
    {
      "type": "Feature",
      "properties": {
        "norad_id": 43057,
        "name": "GSAT0217 (GALILEO 21)",
        "group": "galileo",
        "lat": -40.94421137858194,
        "lon": -170.53239503954575,
        "alt_km": 23220.42686782305,
        "timestamp": "2025-12-12T07:43:20.776459+00:00",
        "meta_object_name": "GSAT0217 (GALILEO 21)",
        "meta_object_id": "2017-079C",
        "meta_epoch": "2025-12-10T01:28:57.302112",
        "meta_mean_motion": 1.704739,
        "meta_eccentricity": 0.00027944,
        "meta_inclination": 55.1293,
        "meta_ra_of_asc_node": 226.7095,
        "meta_arg_of_pericenter": 343.7549,
        "meta_mean_anomaly": 16.3188,
        "meta_ephemeris_type": 0,
        "meta_classification_type": "U",
        "meta_norad_cat_id": 43057,
        "meta_element_set_no": 999,
        "meta_rev_at_epoch": 4976,
        "meta_bstar": 0,
        "meta_mean_motion_dot": 9e-08,
        "meta_mean_motion_ddot": 0,
        "tle_line1": "1 43057U 17079C   25344.06177433  .00000009  00000+0  00000+0 0  9999",
        "tle_line2": "2 43057  55.1293 226.7095 0002794 343.7549  16.3188  1.70473900 49768"
      },
      "geometry": {
        "type": "Point",
        "coordinates": [
          -170.53239503954575,
          -40.94421137858194
        ]
      }
    },
    {
      "type": "Feature",
      "properties": {
        "norad_id": 43058,
        "name": "GSAT0218 (GALILEO 22)",
        "group": "galileo",
        "lat": 6.584980598883112,
        "lon": 42.03951911707546,
        "alt_km": 23227.41543172396,
        "timestamp": "2025-12-12T07:43:20.776470+00:00",
        "meta_object_name": "GSAT0218 (GALILEO 22)",
        "meta_object_id": "2017-079D",
        "meta_epoch": "2025-12-09T02:36:28.325952",
        "meta_mean_motion": 1.70473942,
        "meta_eccentricity": 0.00028125,
        "meta_inclination": 55.1298,
        "meta_ra_of_asc_node": 226.7335,
        "meta_arg_of_pericenter": 306.3632,
        "meta_mean_anomaly": 53.6978,
        "meta_ephemeris_type": 0,
        "meta_classification_type": "U",
        "meta_norad_cat_id": 43058,
        "meta_element_set_no": 999,
        "meta_rev_at_epoch": 4977,
        "meta_bstar": 0,
        "meta_mean_motion_dot": 1.2e-07,
        "meta_mean_motion_ddot": 0,
        "tle_line1": "1 43058U 17079D   25343.10866118  .00000012  00000+0  00000+0 0  9993",
        "tle_line2": "2 43058  55.1298 226.7335 0002812 306.3632  53.6978  1.70473942 49778"
      },
      "geometry": {
        "type": "Point",
        "coordinates": [
          42.03951911707546,
          6.584980598883112
        ]
      }
    }
  ]
}